GLOBALSTAR M084         
1 38040U 11080A   24280.85787322 -.00000094  00000+0  56451-4 0  9991
2 38040  51.9988  99.7001 0000701 111.9471  25.9340 12.62268401590677
GLOBALSTAR M080         
1 38041U 11080B   24280.91243125 -.00000091  00000+0  69400-4 0  9992
2 38041  52.0042 101.0524 0000987 118.5483  27.1157 12.62266687590809
GLOBALSTAR M082         
1 38042U 11080C   24280.84951459 -.00000100  00000+0  18846-4 0  9990
2 38042  52.0083  56.6615 0000789  62.2454  97.5422 12.62267333591507
GLOBALSTAR M092         
1 38043U 11080D   24280.80872618 -.00000051  00000+0  29552-3 0  9996
2 38043  52.0069 147.1519 0000662  79.5056  14.9592 12.62267254589959
GLOBALSTAR M090         
1 38044U 11080E   24280.79461300 -.00000083  00000+0  11825-3 0  9996
2 38044  51.9892  50.9632 0000767  82.0397  68.3059 12.62268388591618
GLOBALSTAR M086         
1 38045U 11080F   24280.82223903 -.00000088  00000+0  88489-4 0  9992
2 38045  51.9908  51.4095 0001655 110.9502  45.6119 12.62267951591566
GLOBALSTAR M097         
1 39072U 13005A   24280.81461078 -.00000067  00000+0  20460-3 0  9999
2 39072  52.0063 325.7299 0000664  86.3383 273.7559 12.62271190538817
GLOBALSTAR M093         
1 39073U 13005B   24280.78778708 -.00000065  00000+0  21760-3 0  9999
2 39073  51.9821 319.5174 0000668  78.5844 281.5097 12.62265161538769
